STARLINK-30329          
1 57635U 23122D   26173.43948961  .00000415  00000+0  24597-4 0  9999
2 57635  43.0006 221.2285 0001196 272.8439  87.2276 15.27579523158221
STARLINK-30330          
1 57636U 23122E   26173.57413903 -.00001083  00000+0 -29856-4 0  9995
2 57636  43.0014 220.5190 0001235 275.2133  84.8577 15.27557899158241
STARLINK-30311          
1 57637U 23122F   26173.19578962  .00000099  00000+0  13136-4 0  9999
2 57637  43.0037 221.9860 0001609 266.4490  93.6178 15.27574697158193
STARLINK-30328          
1 57638U 23122G   26173.39970336  .00000829  00000+0  39649-4 0  9991
2 57638  42.9994 209.8422 0001278 290.5606  69.5109 15.27575364158369
STARLINK-30326          
1 57639U 23122H   26173.48303628  .00001029  00000+0  46914-4 0  9992
2 57639  42.9991 220.6842 0001438 276.2271  83.8417 15.27567742158239
STARLINK-30324          
1 57640U 23122J   26173.43563476  .00000184  00000+0  16204-4 0  9998
2 57640  42.9993 221.1954 0001166 278.0612  82.0107 15.27576426158214
STARLINK-30312          
1 57641U 23122K   26173.18936219  .00000958  00000+0  44344-4 0  9995
2 57641  43.0048 221.9341 0001847 274.2095  85.8546 15.27575369158195
STARLINK-30263          
1 57642U 23122L   26173.59195696  .00001176  00000+0  52237-4 0  9990
2 57642  43.0037 219.7973 0001519 273.8511  86.2167 15.27582908158252
STARLINK-30280          
1 57643U 23122M   26173.40351103  .00000862  00000+0  40859-4 0  9996
2 57643  43.0062 220.9638 0001860 272.9013  87.1626 15.27575353158222
STARLINK-30247          
1 57644U 23122N   26173.59581938 -.00000137  00000+0  45673-5 0  9994
2 57644  43.0042 219.8321 0001661 266.9963  93.0698 15.27587635158257
STARLINK-30277          
1 57645U 23122P   26173.15449866 -.00000139  00000+0  44947-5 0  9995
2 57645  43.0020  80.4372 0001490 265.2262  94.8420 15.27575064159858
STARLINK-30265          
1 57646U 23122Q   26173.58552713  .00001799  00000+0  74865-4 0  9992
2 57646  43.0033 219.7477 0001435 266.6535  93.4152 15.27585396158252
STARLINK-30286          
1 57647U 23122R   26173.60352689  .00000622  00000+0  32130-4 0  9999
2 57647  43.0015 219.8793 0001243 265.0061  95.0649 15.27576010158251
STARLINK-30243          
1 57648U 23122S   26173.42535627 -.00000140  00000+0  44368-5 0  9998
2 57648  42.9996 221.1180 0001353 269.6619  90.4078 15.27575993158226
STARLINK-30299          
1 57650U 23122U   26173.21506147  .00000802  00000+0  38674-4 0  9999
2 57650  42.9995 222.1203 0001595 271.9947  88.0722 15.27578237158192
STARLINK-30294          
1 57651U 23122V   26172.80610318  .00001356  00000+0  58802-4 0  9990
2 57651  43.0011 213.1973 0001387 273.8209  86.2484 15.27577790158265
STARLINK-30276          
1 57652U 23122W   26173.48688806  .00000358  00000+0  22533-4 0  9996
2 57652  43.0023 220.7203 0001327 274.2081  85.8619 15.27575245158231
STARLINK-30289          
1 57653U 23122X   26173.38316585 -.00001380  00000+0 -40627-4 0  9990
2 57653  42.9993 210.5931 0001660 275.6860  84.3803 15.27572955158336
GAOFEN-12 04            
1 57654U 23123A   26173.88318572  .00000678  00000+0  95975-4 0  9998
2 57654  97.9119  91.8192 0001759  80.4953 279.6458 14.80237439153478
STARLINK-30267          
1 57663U 23124A   26173.44820343 -.00000016  00000+0  11588-4 0  9990
2 57663  53.1593  80.4320 0001135  83.5250 276.5880 15.30192922159606
STARLINK-30298          
1 57665U 23124C   26173.76299833  .00147634  00000+0  43327-2 0  9992
2 57665  53.1614  78.8588 0000785 101.6907 258.4183 15.34127127159659
STARLINK-30301          
1 57666U 23124D   26173.30419324  .00008957  00000+0  28285-3 0  9993
2 57666  53.1596 141.7023 0002930  51.9446 308.1821 15.33604900158707
STARLINK-30275          
1 57667U 23124E   26173.83335648 -.00002040  00000+0 -49249-4 0  9991
2 57667  53.1601  78.5584 0000984 102.3913 170.4132 15.34411686  5851
STARLINK-30278          
1 57668U 23124F   26173.72528018 -.00002934  00000+0 -87088-4 0  9990
2 57668  53.1605  79.1604 0001270  86.5129 273.6017 15.30163442159642
STARLINK-30271          
1 57669U 23124G   26173.02874371 -.00000383  00000+0 -57868-6 0  9991
2 57669  53.1617  81.7930 0001361  84.3265 275.7891 15.31706673159547
STARLINK-30322          
1 57670U 23124H   26173.83335648 -.00009626  00000+0 -28143-3 0  9991
2 57670  53.1600  78.6254 0001633  82.4403 159.4605 15.33579140  5809
STARLINK-30296          
1 57671U 23124J   26173.45136453  .00000592  00000+0  32132-4 0  9998
2 57671  53.1593  80.4054 0001211  99.6071 260.5067 15.30193173159602
STARLINK-30274          
1 57672U 23124K   26172.45527791  .00066106  00000+0  21882-2 0  9998
2 57672  53.1612  84.9612 0001166 114.6921 245.4202 15.30729029159456
STARLINK-30316          
1 57673U 23124L   26173.76931051  .00002928  00000+0  97828-4 0  9999
2 57673  53.1622  78.8442 0001398  97.2370 262.8792 15.34374192159652
STARLINK-30313          
1 57676U 23124P   26173.76532911 -.00005830  00000+0 -18518-3 0  9999
2 57676  53.1606  78.9170 0001467 101.2513 258.8653 15.30145639159657
