OBJECT_NAME,OBJECT_ID,EPOCH,MEAN_MOTION,ECCENTRICITY,INCLINATION,RA_OF_ASC_NODE,ARG_OF_PERICENTER,MEAN_ANOMALY,EPHEMERIS_TYPE,CLASSIFICATION_TYPE,NORAD_CAT_ID,ELEMENT_SET_NO,REV_AT_EPOCH,BSTAR,MEAN_MOTION_DOT,MEAN_MOTION_DDOT
STARLINK-30329,2023-122D,2026-06-22T10:32:51.902304,15.27579523,.00011962,43.0006,221.2285,272.8439,87.2276,0,U,57635,999,15822,.24597333E-4,.415E-5,0
STARLINK-30330,2023-122E,2026-06-22T13:46:45.612192,15.27557899,.00012353,43.0014,220.5190,275.2133,84.8577,0,U,57636,999,15824,-.29855582E-4,-.1083E-4,0
STARLINK-30311,2023-122F,2026-06-22T04:41:56.223168,15.27574697,.00016095,43.0037,221.9860,266.4490,93.6178,0,U,57637,999,15819,.13136336E-4,.99E-6,0
STARLINK-30328,2023-122G,2026-06-22T09:35:34.370304,15.27575364,.00012781,42.9994,209.8422,290.5606,69.5109,0,U,57638,999,15836,.39648801E-4,.829E-5,0
STARLINK-30326,2023-122H,2026-06-22T11:35:34.334592,15.27567742,.00014386,42.9991,220.6842,276.2271,83.8417,0,U,57639,999,15823,.46913876E-4,.1029E-4,0
STARLINK-30324,2023-122J,2026-06-22T10:27:18.843264,15.27576426,.00011664,42.9993,221.1954,278.0612,82.0107,0,U,57640,999,15821,.16204147E-4,.184E-5,0
STARLINK-30312,2023-122K,2026-06-22T04:32:40.893216,15.27575369,.00018477,43.0048,221.9341,274.2095,85.8546,0,U,57641,999,15819,.44344239E-4,.958E-5,0
STARLINK-30263,2023-122L,2026-06-22T14:12:25.081344,15.27582908,.00015193,43.0037,219.7973,273.8511,86.2167,0,U,57642,999,15825,.52237134E-4,.1176E-4,0
STARLINK-30280,2023-122M,2026-06-22T09:41:03.352992,15.27575353,.00018609,43.0062,220.9638,272.9013,87.1626,0,U,57643,999,15822,.4085912E-4,.862E-5,0
STARLINK-30247,2023-122N,2026-06-22T14:17:58.794432,15.27587635,.0001661,43.0042,219.8321,266.9963,93.0698,0,U,57644,999,15825,.4567251E-5,-.137E-5,0
STARLINK-30277,2023-122P,2026-06-22T03:42:28.684224,15.27575064,.00014901,43.0020,80.4372,265.2262,94.8420,0,U,57645,999,15985,.4494702E-5,-.139E-5,0
STARLINK-30265,2023-122Q,2026-06-22T14:03:09.544032,15.27585396,.00014353,43.0033,219.7477,266.6535,93.4152,0,U,57646,999,15825,.74865119E-4,.1799E-4,0
STARLINK-30286,2023-122R,2026-06-22T14:29:04.723296,15.27576010,.00012431,43.0015,219.8793,265.0061,95.0649,0,U,57647,999,15825,.32129895E-4,.622E-5,0
STARLINK-30243,2023-122S,2026-06-22T10:12:30.781728,15.27575993,.00013539,42.9996,221.1180,269.6619,90.4078,0,U,57648,999,15822,.4436799E-5,-.14E-5,0
STARLINK-30299,2023-122U,2026-06-22T05:09:41.311008,15.27578237,.00015951,42.9995,222.1203,271.9947,88.0722,0,U,57650,999,15819,.38673975E-4,.802E-5,0
STARLINK-30294,2023-122V,2026-06-21T19:20:47.314752,15.27577790,.00013873,43.0011,213.1973,273.8209,86.2484,0,U,57651,999,15826,.58801734E-4,.1356E-4,0
STARLINK-30276,2023-122W,2026-06-22T11:41:07.128384,15.27575245,.00013272,43.0023,220.7203,274.2081,85.8619,0,U,57652,999,15823,.22533208E-4,.358E-5,0
STARLINK-30289,2023-122X,2026-06-22T09:11:45.529440,15.27572955,.00016607,42.9993,210.5931,275.6860,84.3803,0,U,57653,999,15833,-.40627351E-4,-.138E-4,0
GAOFEN-12 04,2023-123A,2026-06-22T21:11:47.246208,14.80237439,.0001759,97.9119,91.8192,80.4953,279.6458,0,U,57654,999,15347,.95974661E-4,.678E-5,0
STARLINK-30267,2023-124A,2026-06-22T10:45:24.776352,15.30192922,.00011353,53.1593,80.4320,83.5250,276.5880,0,U,57663,999,15960,.11587985E-4,-.16E-6,0
STARLINK-30298,2023-124C,2026-06-22T18:18:43.055712,15.34127127,.00007855,53.1614,78.8588,101.6907,258.4183,0,U,57665,999,15965,.43326632E-2,.147634E-2,0
STARLINK-30301,2023-124D,2026-06-22T07:18:02.295936,15.33604900,.00029309,53.1596,141.7023,51.9446,308.1821,0,U,57666,999,15870,.28285478E-3,.8957E-4,0
STARLINK-30275,2023-124E,2026-06-22T20:00:01.999872,15.34411686,.00009841,53.1601,78.5584,102.3913,170.4132,0,U,57667,999,585,-.49249337E-4,-.204E-4,0
STARLINK-30278,2023-124F,2026-06-22T17:24:24.207552,15.30163442,.00012703,53.1605,79.1604,86.5129,273.6017,0,U,57668,999,15964,-.87087524E-4,-.2934E-4,0
STARLINK-30271,2023-124G,2026-06-22T00:41:23.456544,15.31706673,.00013619,53.1617,81.7930,84.3265,275.7891,0,U,57669,999,15954,-.578676E-6,-.383E-5,0
STARLINK-30322,2023-124H,2026-06-22T20:00:01.999872,15.33579140,.00016335,53.1600,78.6254,82.4403,159.4605,0,U,57670,999,580,-.2814323E-3,-.9626E-4,0
STARLINK-30296,2023-124J,2026-06-22T10:49:57.895392,15.30193173,.00012113,53.1593,80.4054,99.6071,260.5067,0,U,57671,999,15960,.32131871E-4,.592E-5,0
STARLINK-30274,2023-124K,2026-06-21T10:55:36.011424,15.30729029,.00011667,53.1612,84.9612,114.6921,245.4202,0,U,57672,999,15945,.21882342E-2,.66106E-3,0
STARLINK-30316,2023-124L,2026-06-22T18:27:48.428064,15.34374192,.0001398,53.1622,78.8442,97.2370,262.8792,0,U,57673,999,15965,.9782837E-4,.2928E-4,0
STARLINK-30313,2023-124P,2026-06-22T18:22:04.435104,15.30145639,.00014674,53.1606,78.9170,101.2513,258.8653,0,U,57676,999,15965,-.18517624E-3,-.583E-4,0
